*******************************************************************************
Ephemeris / WWW_USER Fri Mar  7 10:35:31 2025 Pasadena, USA      / Horizons    
*******************************************************************************
Target body name: (2017 SN16)                     {source: JPL#20}
Center body name: Earth (399)                     {source: DE441}
Center-site name: Mauna Kea
*******************************************************************************
Start time      : A.D. 2018-Oct-04 04:17:00.0000 UT      
Stop  time      : A.D. 2018-Oct-04 16:04:00.0000 UT      
Step-size       : 1 minutes
*******************************************************************************
Target pole/equ : undefined
Target radii    : undefined                                                    
Center geodetic : 204.5278, 19.8260847, 4.21024   {E-lon(deg),Lat(deg),Alt(km)}
Center cylindric: 204.5278, 6006.35451, 2151.0229 {E-lon(deg),Dxy(km),Dz(km)}
Center pole/equ : ITRF93                          {East-longitude positive}
Center radii    : 6378.137, 6378.137, 6356.752 km {Equator_a, b, pole_c}       
Target primary  : Sun
Vis. interferer : MOON (R_eq= 1737.400) km        {source: DE441}
Rel. light bend : Sun                             {source: DE441}
Rel. lght bnd GM: 1.3271E+11 km^3/s^2                                          
Small-body perts: Yes                             {source: SB441-N16}
Atmos refraction: NO (AIRLESS)
RA format       : HMS
Time format     : CAL 
Calendar mode   : Mixed Julian/Gregorian
RTS-only print  : NO       
EOP file        : eop.250306.p250602                                           
EOP coverage    : DATA-BASED 1962-JAN-20 TO 2025-MAR-06. PREDICTS-> 2025-JUN-01
Units conversion: 1 au= 149597870.700 km, c= 299792.458 km/s, 1 day= 86400.0 s 
Table cut-offs 1: Elevation (-90.0deg=NO ),Airmass (>38.000=NO), Daylight (YES)
Table cut-offs 2: Solar elongation (  0.0,180.0=NO ),Local Hour Angle( 0.0=NO )
Table cut-offs 3: RA/DEC angular rate (     0.0=NO )                           
*******************************************************************************
Initial IAU76/J2000 heliocentric ecliptic osculating elements (au, days, deg.):
  EPOCH=  2458305.5 ! 2018-Jul-06.00 (TDB)         Residual RMS= .23751        
   EC= .1454884975659386   QR= .8682464985612274   TP= 2458145.5722438502      
   OM= 2.759719470837934   W=  137.1017088998531   IN= 13.38264682844635       
  Equivalent ICRF heliocentric cartesian coordinates (au, au/d):
   X= 5.756755401261899E-01  Y=-7.953424559592890E-01  Z=-6.031561894536019E-01
  VX= 1.332076113263395E-02 VY= 5.454663564585547E-03 VZ= 3.896229736425836E-03
Asteroid physical parameters (km, seconds, rotational period in hours):        
   GM= n.a.                RAD= n.a.               ROTPER= n.a.                
   H= 23.34                G= .150                 B-V= n.a.                   
                           ALBEDO= n.a.            STYP= n.a.                  
*******************************************************************************
 Date__(UT)__HR:MN     R.A._________(ICRF)_________DEC
******************************************************
$$SOE
 2018-Oct-04 06:20     22 20 58.533760 +00 07 54.96708
 2018-Oct-04 06:21     22 20 58.268874 +00 07 57.82498
 2018-Oct-04 06:22     22 20 58.003960 +00 08 00.68285
 2018-Oct-04 06:23     22 20 57.739019 +00 08 03.54069
 2018-Oct-04 06:24     22 20 57.474049 +00 08 06.39849
 2018-Oct-04 06:25     22 20 57.209053 +00 08 09.25627
 2018-Oct-04 06:26     22 20 56.944029 +00 08 12.11400
 2018-Oct-04 06:27     22 20 56.678979 +00 08 14.97171
 2018-Oct-04 06:28     22 20 56.413903 +00 08 17.82938
 2018-Oct-04 06:29     22 20 56.148800 +00 08 20.68702
 2018-Oct-04 06:30     22 20 55.883673 +00 08 23.54463
 2018-Oct-04 06:31     22 20 55.618520 +00 08 26.40220
 2018-Oct-04 06:32     22 20 55.353342 +00 08 29.25974
 2018-Oct-04 06:33     22 20 55.088140 +00 08 32.11725
 2018-Oct-04 06:34     22 20 54.822914 +00 08 34.97472
 2018-Oct-04 06:35     22 20 54.557665 +00 08 37.83216
 2018-Oct-04 06:36     22 20 54.292392 +00 08 40.68956
 2018-Oct-04 06:37     22 20 54.027096 +00 08 43.54694
 2018-Oct-04 06:38     22 20 53.761777 +00 08 46.40427
 2018-Oct-04 06:39     22 20 53.496437 +00 08 49.26158
 2018-Oct-04 06:40     22 20 53.231074 +00 08 52.11885
 2018-Oct-04 06:41     22 20 52.965690 +00 08 54.97608
 2018-Oct-04 06:42     22 20 52.700285 +00 08 57.83328
 2018-Oct-04 06:43     22 20 52.434859 +00 09 00.69045
 2018-Oct-04 06:44     22 20 52.169412 +00 09 03.54758
 2018-Oct-04 06:45     22 20 51.903946 +00 09 06.40468
 2018-Oct-04 06:46     22 20 51.638460 +00 09 09.26175
 2018-Oct-04 06:47     22 20 51.372955 +00 09 12.11878
 2018-Oct-04 06:48     22 20 51.107430 +00 09 14.97577
 2018-Oct-04 06:49     22 20 50.841888 +00 09 17.83273
 2018-Oct-04 06:50     22 20 50.576327 +00 09 20.68966
 2018-Oct-04 06:51     22 20 50.310748 +00 09 23.54655
 2018-Oct-04 06:52     22 20 50.045152 +00 09 26.40341
 2018-Oct-04 06:53     22 20 49.779538 +00 09 29.26023
 2018-Oct-04 06:54     22 20 49.513908 +00 09 32.11701
 2018-Oct-04 06:55     22 20 49.248262 +00 09 34.97377
 2018-Oct-04 06:56     22 20 48.982600 +00 09 37.83048
 2018-Oct-04 06:57     22 20 48.716922 +00 09 40.68716
 2018-Oct-04 06:58     22 20 48.451229 +00 09 43.54381
 2018-Oct-04 06:59     22 20 48.185521 +00 09 46.40042
 2018-Oct-04 07:00     22 20 47.919799 +00 09 49.25700
 2018-Oct-04 07:01     22 20 47.654062 +00 09 52.11354
 2018-Oct-04 07:02     22 20 47.388312 +00 09 54.97004
 2018-Oct-04 07:03     22 20 47.122548 +00 09 57.82651
 2018-Oct-04 07:04     22 20 46.856772 +00 10 00.68295
 2018-Oct-04 07:05     22 20 46.590983 +00 10 03.53934
 2018-Oct-04 07:06     22 20 46.325182 +00 10 06.39571
 2018-Oct-04 07:07     22 20 46.059369 +00 10 09.25203
 2018-Oct-04 07:08     22 20 45.793544 +00 10 12.10832
 2018-Oct-04 07:09     22 20 45.527708 +00 10 14.96458
 2018-Oct-04 07:10     22 20 45.261862 +00 10 17.82080
 2018-Oct-04 07:11     22 20 44.996005 +00 10 20.67698
 2018-Oct-04 07:12     22 20 44.730139 +00 10 23.53313
 2018-Oct-04 07:13     22 20 44.464263 +00 10 26.38924
 2018-Oct-04 07:14     22 20 44.198377 +00 10 29.24531
 2018-Oct-04 07:15     22 20 43.932483 +00 10 32.10135
 2018-Oct-04 07:16     22 20 43.666581 +00 10 34.95735
 2018-Oct-04 07:17     22 20 43.400670 +00 10 37.81332
 2018-Oct-04 07:18     22 20 43.134752 +00 10 40.66924
 2018-Oct-04 07:19     22 20 42.868826 +00 10 43.52514
 2018-Oct-04 07:20     22 20 42.602893 +00 10 46.38099
 2018-Oct-04 07:21     22 20 42.336954 +00 10 49.23681
 2018-Oct-04 07:22     22 20 42.071009 +00 10 52.09259
 2018-Oct-04 07:23     22 20 41.805058 +00 10 54.94834
 2018-Oct-04 07:24     22 20 41.539102 +00 10 57.80404
 2018-Oct-04 07:25     22 20 41.273140 +00 11 00.65971
 2018-Oct-04 07:26     22 20 41.007174 +00 11 03.51535
 2018-Oct-04 07:27     22 20 40.741204 +00 11 06.37094
 2018-Oct-04 07:28     22 20 40.475230 +00 11 09.22650
 2018-Oct-04 07:29     22 20 40.209252 +00 11 12.08203
 2018-Oct-04 07:30     22 20 39.943272 +00 11 14.93751
 2018-Oct-04 07:31     22 20 39.677288 +00 11 17.79296
 2018-Oct-04 07:32     22 20 39.411302 +00 11 20.64837
 2018-Oct-04 07:33     22 20 39.145315 +00 11 23.50374
 2018-Oct-04 07:34     22 20 38.879325 +00 11 26.35908
 2018-Oct-04 07:35     22 20 38.613335 +00 11 29.21437
 2018-Oct-04 07:36     22 20 38.347344 +00 11 32.06963
 2018-Oct-04 07:37     22 20 38.081352 +00 11 34.92485
 2018-Oct-04 07:38     22 20 37.815360 +00 11 37.78004
 2018-Oct-04 07:39     22 20 37.549369 +00 11 40.63518
 2018-Oct-04 07:40     22 20 37.283378 +00 11 43.49029
 2018-Oct-04 07:41     22 20 37.017388 +00 11 46.34536
 2018-Oct-04 07:42     22 20 36.751400 +00 11 49.20039
 2018-Oct-04 07:43     22 20 36.485414 +00 11 52.05539
 2018-Oct-04 07:44     22 20 36.219430 +00 11 54.91034
 2018-Oct-04 07:45     22 20 35.953449 +00 11 57.76526
 2018-Oct-04 07:46     22 20 35.687471 +00 12 00.62014
 2018-Oct-04 07:47     22 20 35.421496 +00 12 03.47498
 2018-Oct-04 07:48     22 20 35.155525 +00 12 06.32978
 2018-Oct-04 07:49     22 20 34.889558 +00 12 09.18454
 2018-Oct-04 07:50     22 20 34.623595 +00 12 12.03927
 2018-Oct-04 07:51     22 20 34.357638 +00 12 14.89395
 2018-Oct-04 07:52  t  22 20 34.091686 +00 12 17.74860
 2018-Oct-04 07:53     22 20 33.825740 +00 12 20.60321
 2018-Oct-04 07:54     22 20 33.559799 +00 12 23.45778
 2018-Oct-04 07:55     22 20 33.293866 +00 12 26.31231
 2018-Oct-04 07:56     22 20 33.027939 +00 12 29.16680
 2018-Oct-04 07:57     22 20 32.762019 +00 12 32.02126
 2018-Oct-04 07:58     22 20 32.496107 +00 12 34.87567
 2018-Oct-04 07:59     22 20 32.230203 +00 12 37.73004
 2018-Oct-04 08:00     22 20 31.964307 +00 12 40.58438
 2018-Oct-04 08:01     22 20 31.698421 +00 12 43.43867
 2018-Oct-04 08:02     22 20 31.432543 +00 12 46.29293
 2018-Oct-04 08:03     22 20 31.166675 +00 12 49.14715
 2018-Oct-04 08:04     22 20 30.900817 +00 12 52.00132
 2018-Oct-04 08:05     22 20 30.634969 +00 12 54.85546
 2018-Oct-04 08:06     22 20 30.369132 +00 12 57.70956
 2018-Oct-04 08:07     22 20 30.103306 +00 13 00.56362
 2018-Oct-04 08:08     22 20 29.837491 +00 13 03.41764
 2018-Oct-04 08:09     22 20 29.571688 +00 13 06.27162
 2018-Oct-04 08:10     22 20 29.305898 +00 13 09.12556
 2018-Oct-04 08:11     22 20 29.040120 +00 13 11.97946
 2018-Oct-04 08:12     22 20 28.774355 +00 13 14.83332
 2018-Oct-04 08:13     22 20 28.508604 +00 13 17.68714
 2018-Oct-04 08:14     22 20 28.242866 +00 13 20.54092
 2018-Oct-04 08:15     22 20 27.977142 +00 13 23.39465
 2018-Oct-04 08:16     22 20 27.711433 +00 13 26.24835
 2018-Oct-04 08:17     22 20 27.445739 +00 13 29.10201
 2018-Oct-04 08:18     22 20 27.180060 +00 13 31.95563
 2018-Oct-04 08:19     22 20 26.914397 +00 13 34.80921
 2018-Oct-04 08:20     22 20 26.648750 +00 13 37.66275
 2018-Oct-04 08:21     22 20 26.383119 +00 13 40.51624
 2018-Oct-04 08:22     22 20 26.117505 +00 13 43.36970
